[{"OBJECT_NAME":"STARLINK-2036","OBJECT_ID":"2021-012AJ","EPOCH":"2026-03-10T00:00:02.999808","MEAN_MOTION":15.43145644,"ECCENTRICITY":0.00019859,"INCLINATION":53.161,"RA_OF_ASC_NODE":63.0833,"ARG_OF_PERICENTER":97.7885,"MEAN_ANOMALY":132.9108,"EPHEMERIS_TYPE":0,"CLASSIFICATION_TYPE":"U","NORAD_CAT_ID":47652,"ELEMENT_SET_NO":999,"REV_AT_EPOCH":585,"BSTAR":0.0033754047,"MEAN_MOTION_DOT":0.00154499,"MEAN_MOTION_DDOT":0},{"OBJECT_NAME":"AE1D","OBJECT_ID":"2025-009K","EPOCH":"2026-03-09T16:59:52.875168","MEAN_MOTION":15.46504866,"ECCENTRICITY":0.00028074,"INCLINATION":97.3999,"RA_OF_ASC_NODE":155.4222,"ARG_OF_PERICENTER":303.815,"MEAN_ANOMALY":56.2832,"EPHEMERIS_TYPE":0,"CLASSIFICATION_TYPE":"U","NORAD_CAT_ID":62618,"ELEMENT_SET_NO":999,"REV_AT_EPOCH":6400,"BSTAR":0.0012159067,"MEAN_MOTION_DOT":0.00060646,"MEAN_MOTION_DDOT":0}]
